[{"OBJECT_NAME":"STARLINK-35483","OBJECT_ID":"2025-245U","EPOCH":"2026-03-09T21:47:16.749600","MEAN_MOTION":15.30222685,"ECCENTRICITY":9.778e-5,"INCLINATION":53.1589,"RA_OF_ASC_NODE":282.6176,"ARG_OF_PERICENTER":81.421,"MEAN_ANOMALY":278.6901,"EPHEMERIS_TYPE":0,"CLASSIFICATION_TYPE":"U","NORAD_CAT_ID":66252,"ELEMENT_SET_NO":999,"REV_AT_EPOCH":2124,"BSTAR":0.0012960184,"MEAN_MOTION_DOT":0.0003825,"MEAN_MOTION_DDOT":0},{"OBJECT_NAME":"OBJECT BE","OBJECT_ID":"2025-313BE","EPOCH":"2026-03-09T16:43:59.380320","MEAN_MOTION":15.29801687,"ECCENTRICITY":0.00072083,"INCLINATION":97.3989,"RA_OF_ASC_NODE":145.3568,"ARG_OF_PERICENTER":335.3714,"MEAN_ANOMALY":24.7181,"EPHEMERIS_TYPE":0,"CLASSIFICATION_TYPE":"U","NORAD_CAT_ID":67482,"ELEMENT_SET_NO":999,"REV_AT_EPOCH":797,"BSTAR":0.0026504328,"MEAN_MOTION_DOT":0.00077178,"MEAN_MOTION_DDOT":0}]
